#dP2021  4 22  0  0  0.00000000      96 __u+U ITR00 FIT  IAC
## 2154 345600.00000000   900.00000000 59326 0.0000000000000
+  124   C01C02C03C04C05C06C07C08C09C10C11C12C13C14C16C19C20
+        C21C22C23C24C25C26C27C28C29C30C32C33C34C35C36C37C38
+        C40C41C42C43C44C45C46C60E01E02E03E04E05E07E08E09E11
+        E12E13E14E15E18E19E21E24E25E26E27E30E31E33E36G01G02
+        G03G04G05G06G07G08G09G10G12G13G14G15G16G17G18G19G20
+        G21G22G23G24G25G26G27G28G29G30G31G32J01J02J03R01R02
+        R03R04R05R06R07R08R09R10R11R12R13R14R15R16R17R18R19
+        R20R21R22R23R24  0  0  0  0  0  0  0  0  0  0  0  0
++        13 13 13 13 13  9  9  9  9  9  9  9  9  9  9  9  8
++         8  9  8  8  8  8  8  8  8  8  9  9  8  8  9  9 10
++        10  9  9  9  9  9  9 13  5  4  5  4  5  5  5  5  5
++         4  5  5  5  6  5  5  6  5  5  5  5  6  5  6  4  4
++         4  4  4  4  4  4  4  4  4  4  4  4  4  4  4  4  4
++         4  4  4  5  4  4  4  4  4  4  4  4  9  9  9  8  6
++         6  6  6 13  6  6  6 14  8  6  8  6  6  8  6  6  8
++         8  6  8 13  6  0  0  0  0  0  0  0  0  0  0  0  0
%c M  cc GPS ccc cccc cccc cccc cccc ccccc ccccc ccccc ccccc
%c cc cc ccc ccc cccc cccc cccc cccc ccccc ccccc ccccc ccccc
%f  0.0000000  0.000000000  0.00000000000  0.000000000000000
%f  0.0000000  0.000000000  0.00000000000  0.000000000000000
%i    0    0    0    0      0      0      0      0         0
%i    0    0    0    0      0      0      0      0         0
/* INFORMATION & ANALYSIS CENTER (IAC)            RAPID DATA
/* S/V CLOCKS ARE ALIGNED TO GNSS TIME                      
/* G:C1WC2W R:C1PC2P E:C1XC5X C:C2IC6I J:C1CC2S             
/* PCV:IGS14_2148 OL/AL:FES2004  NONE     YN ORB:CoN CLK:CoN
*  2021 04 22  8 30  0.00000000
PC01 -34281.270520  24541.259818     97.821874   -537.077353
PC02   4327.396430  41915.662026   -521.686729    739.050542
PC03 -14799.089222  39437.699160    448.699144   -378.096345
PC04 -39591.527419  14483.750476    540.359269   -144.378688
PC05  21855.770443  36010.536391   -514.591185     89.065540
PC06 -14396.820230  20311.256953 -33603.983314    304.382582
PC07 -23590.697635  33268.421853   9818.026284   -145.839146
PC08  -7784.165438  34695.255548  23054.296318   -891.255180
PC09   2412.119398  26461.848802 -32343.808694    577.795444
PC10 -10611.837356  34467.890323  21689.224495    -52.980178
PC11 -19173.382161   4147.445119  19891.754979   -794.964280
PC12 -25513.945249  -9825.014185   5587.324426    916.578556
PC13    766.788231  40882.291753  10890.788909    231.520674
PC14 -24096.237965  13934.789091   1490.503581    533.239581
PC16  -9923.861720  21960.474535 -34477.697371   -796.714122
PC19  19219.179899 -18631.693641   7960.559690    807.737815
PC20  25045.776151  -8357.113562  -9064.196708   -951.575471
PC21 -16093.105108  -7527.847290  21537.159276   -949.763445
PC22   2131.808625 -18418.974069  20874.771952   -964.498691
PC23   2008.608839  27778.289237   1761.488676   -892.018238
PC24 -16162.886871   1991.529584 -22671.520599   -822.377463
PC25  -9193.918143  22016.654547 -14495.444993   -928.609947
PC26 -13468.746948 -16913.353849 -17632.639505    917.526907
PC27  22855.721955  15561.409658   3663.594243    519.510763
PC28   7953.550634  19146.593424  18680.213745    -83.288982
PC29  11124.637254 -11931.931982 -22648.856818    382.209690
PC30  24571.192318   2350.564219 -12999.490725    462.188567
PC32  16183.120988   7367.823126 -21489.164333   -944.602179
PC33 -19169.537757  18684.101333  -7836.204774   -941.861815
PC34 -24346.578779  -1862.490937  13525.627166   -690.265811
PC35  -8278.389142 -18888.356247 -18824.869096   -315.465572
PC36   9907.425804 -21512.169736  14780.821102   -729.972076
PC37  12717.312685  18058.409222  17080.527329   -902.440634
PC38  -5997.974064  37315.490466  18838.866153    143.900141
PC40 -18360.618624  31087.684241  21671.380850    153.616940
PC41  -2370.724407  18523.418168 -20683.209566   -947.401058
PC42 -24976.383874   7715.891752   9790.316098   -921.606595
PC43 -11753.021179  11635.608352  22472.425842   -696.732566
PC44 -23277.200773 -14936.651543  -3879.015072    150.314433
PC45  -2119.880211 -27752.733115  -1860.016361    420.437788
PC46  15958.407035  -3073.674796  22686.474919    304.895085
PC60   7284.517890  41476.975507   1826.153696      0.352456
PE01  16478.167702 -23536.330284   7104.377650  -1092.196152
PE02 -16436.317881  23613.279051  -7000.487664    213.935501
PE03 -20210.367507  13617.524209 -16787.593157   -422.851101
PE04   -635.940727 -17110.276531  24156.267959   -755.327405
PE05 -29521.174997   2070.484867    557.618474   -286.849843
PE07  21527.760212  10539.638373 -17364.353014   -528.688752
PE08   1097.398976  16926.125717 -24251.955497   6013.805321
PE09 -21674.980619 -10259.319966  17351.111990   5692.624131
PE11 -19675.998650 -21378.392712   5714.379280   6067.490336
PE12  -7174.813821 -25388.937954 -13445.144766   5247.404297
PE13  19571.614786  21550.803570  -5314.907649    415.368627
PE14   7705.029614 -19393.249814 -24821.924609  -1405.498997
PE15   7296.267901  25328.159224  13464.620872    818.176920
PE18   1303.955921  15434.372773  18071.879806  -1537.816023
PE19  22068.163093 -12536.633822  15241.295031    258.444248
PE21  19254.807677  -7177.124496  21298.702594   -660.725434
PE24 -10523.353035 -14748.920736 -23417.741106   -860.418551
PE25 -19230.565950   6975.506116 -21394.195898   -531.658193
PE26  20152.554690   4313.569059 -21241.159777   1896.032044
PE27  11019.874823  13990.322706  23643.725490    -16.499899
PE30  -4442.469836  27010.403812  11269.876507   3005.054799
PE31   3633.040407 -26778.542063 -12071.811585   -480.408438
PE33   9228.684476 -14205.919603 -24270.079582   -467.801166
PE36 -20307.170413  -5096.816995  20933.649915   -197.055649
PG01 -16362.175260  -3895.886390  20393.727805    709.662765
PG02  13743.020572  22476.890942  -2489.262629   -597.864772
PG03 -19421.915134   7160.847772  16495.747071   -143.690174
PG04 -26228.284687   -876.513267  -4284.857183   -193.033873
PG05  12431.927441   9096.887432 -21787.762528    -39.795030
PG06   5044.529950  24849.213390   7865.927755      9.184408
PG07 -11383.209737  11137.678268 -20831.314753    129.463247
PG08 -25642.068275  -5812.205526  -4790.080046    -18.409299
PG09 -21390.219170   7749.636951 -13787.594920   -340.646561
PG10  10168.883828 -23078.516708   8004.086078   -107.032837
PG12  18972.964090  -3363.397057  17961.213884    -31.117160
PG13  20013.649613  13262.036528 -11634.696289    122.939116
PG14 -11865.395370  22630.014833   7194.977080     94.047987
PG15  26132.747937   3577.028110  -4814.104419   -154.480008
PG16  -8427.049628 -12864.677133 -21850.708876   -313.556548
PG17  -6123.710787  13948.728543  22183.601517    430.431577
PG18   8621.453266 -15237.660678 -19962.557313    351.527810
PG19   3667.096610  15307.467024  21126.732631     -9.688963
PG20  18623.318685 -10020.391387 -15881.581602    522.924705
PG21 -18738.187815 -10634.735360  16552.882610    112.818746
PG22 -16509.583504  -2403.145224  20827.584369   -632.132542
PG23  16834.822417 -20284.010303  -3070.968387    112.034911
PG24  18524.677051   8523.371997  16975.251900     26.657795
PG25  19222.340946 -15715.767116   8775.080993    123.290671
PG26  -1603.297832 -20048.241749 -17272.246498     75.504635
PG27 -18547.351294 -12297.762187 -14947.481151   -117.141100
PG28  -9650.702031  22360.946046  11386.994172    582.953618
PG29  21621.826262  -5667.932350 -14427.856460   -334.323340
PG30  -2143.333313  22282.696279 -14060.322741   -416.216638
PG31  -6506.058085 -25032.760248   4754.386720   -113.028688
PG32   3089.335019 -15072.295474  21752.089350     22.032387
PJ01 -36085.433347  19121.038847  -5815.215291   -368.724815
PJ02 -23496.692611  32424.674618  -8817.244192      6.106475
PJ03 -27802.676092  21708.575484  28171.137699     -3.872475
PR01  23895.980606  -8565.030055  -2593.036348     78.281101
PR02  13259.142894 -13684.726783  16973.760390    475.763765
PR03  -4711.816199  -9944.601497  23061.089593     34.645764
PR04 -19699.097770   -515.296098  16231.806263     83.500094
PR05 -23858.728830   9049.677105    314.990366     70.408581
PR06 -12035.139563  14168.391220 -17480.658069    196.667073
PR07   5281.151763   9668.754585 -22962.058339    -42.529111
PR08  19772.205867    483.599355 -16037.654871    -58.648299
PR09  -6034.522264  24143.703497  -5416.067397    -10.834589
PR10   2134.354026  22958.232605  10976.739500    -68.162870
PR11   9492.489672   8122.043238  22245.372333     -0.079896
PR12  11228.063698 -11536.732751  19801.268534    222.877411
PR13   6188.850471 -23990.334419   6050.516728    -53.760780
PR14  -2527.914680 -22421.344352 -11904.037077     63.431639
PR15  -9598.629696  -7812.461046 -22288.087993    104.225681
PR16 -10978.819831  12878.890735 -19162.017933    -14.110323
PR17 -13713.155185 -17950.610164 -11811.975402    417.990795
PR18 -20744.971018 -14055.838880   4945.130465     74.009553
PR19 -17040.075292  -3728.795203  18610.960439   -140.771337
PR20  -2067.689381  11488.651428  22678.828511    -47.770454
PR21  14514.261735  18023.866047  10751.192349   -203.540349
PR22  20684.616710  13552.273782  -6054.290056   -109.032063
PR23  12732.630659  -2234.432852 -21996.873130    380.172238
PR24   1493.479493 -12330.013045 -22264.419579     39.813661
EOF
